NOAA 15                 
1 25338U 98030A   20066.49793353  .00000024  00000-0  28694-4 0  9997
2 25338  98.7280  92.0183 0010174 196.4817 163.6033 14.25953543134550
NOAA 18                 
1 28654U 05018A   20066.38089051  .00000082  00000-0  68815-4 0  9999
2 28654  99.0587 121.7804 0014807 158.3567 201.8233 14.12493422762458
NOAA 19                 
1 33591U 09005A   20066.44851114  .00000018  00000-0  35356-4 0  9992
2 33591  99.1961  69.1134 0014107   8.8507 351.2910 14.12397839570856
